IRIDIUM 921             
1 24873U 97034E   24263.66364016  .00071147  00000+0  13162-2 0  9990
2 24873  86.3750 241.0251 0004498 139.8124 220.3468 15.48764887490032
IRIDIUM 26              
1 24903U 97043A   24263.36827276  .00001397  00000+0  46877-3 0  9993
2 24903  86.3968 224.2237 0002223  86.9873 273.1579 14.36599991417857
IRIDIUM 22              
1 24907U 97043E   24263.84564315  .00001254  00000+0  42987-3 0  9992
2 24907  86.3965 227.3334 0002430  88.3072 271.8403 14.35473707417976
DUMMY MASS 1            
1 24925U 97048A   24263.85151490  .00001223  00000+0  13537-3 0  9999
2 24925  86.3290 260.2242 0008144  41.2965 318.8874 14.86430492465201
DUMMY MASS 2            
1 24926U 97048B   24263.70158562  .00001197  00000+0  13323-3 0  9994
2 24926  86.3288 261.8543 0009294  49.4970 310.7062 14.86186366464963
IRIDIUM 29              
1 24944U 97051A   24263.74916818  .00001239  00000+0  42080-3 0  9997
2 24944  86.3901 257.2358 0002548  88.0689 272.0800 14.35917979414678
IRIDIUM 33              
1 24946U 97051C   24263.51729961  .00000818  00000+0  28324-3 0  9992
2 24946  86.3816 256.5795 0005996 231.5881 128.4777 14.34513741413934
IRIDIUM 28              
1 24948U 97051E   24263.41172250  .00001086  00000+0  36111-3 0  9997
2 24948  86.3907 255.0451 0001931  94.6015 265.5403 14.36870733414953
